*******************************************************************************
Ephemeris / WWW_USER Mon Mar 26 21:03:59 2018 Pasadena, USA      / Horizons    
*******************************************************************************
Target body name: Titan (606)                     {source: sat389}
Center body name: Saturn Barycenter (6)           {source: sat389}
Center-site name: BODY CENTER
*******************************************************************************
Start time      : A.D. 2000-Jan-01 00:00:00.0000 TDB
Stop  time      : A.D. 2010-Jan-01 00:00:00.0000 TDB
Step-size       : 7200 minutes
*******************************************************************************
Center geodetic : 0.00000000,0.00000000,0.0000000 {E-lon(deg),Lat(deg),Alt(km)}
Center cylindric: 0.00000000,0.00000000,0.0000000 {E-lon(deg),Dxy(km),Dz(km)}
Center radii    : (undefined)                                                  
Output units    : AU-D                                                         
Output type     : GEOMETRIC cartesian states
Output format   : 2 (position and velocity)
Reference frame : ICRF/J2000.0                                                 
Coordinate systm: Ecliptic and Mean Equinox of Reference Epoch                 
*******************************************************************************
JDTDB
   X     Y     Z
   VX    VY    VZ
*******************************************************************************
$$SOE
2452804.500000000 = A.D. 2003-Jun-14 00:00:00.0000 TDB 
  -5.927255289551138E-03  5.486432098191094E-03 -2.245437326993222E-03
  -2.222101619767488E-03 -1.866043857902040E-03  1.181724345876833E-03
2452809.500000000 = A.D. 2003-Jun-19 00:00:00.0000 TDB 
  -3.618303428781049E-03 -6.358929261951453E-03  3.636978436601179E-03
   2.909171364191413E-03 -1.313531777866452E-03  3.906139754205202E-04
2452814.500000000 = A.D. 2003-Jun-24 00:00:00.0000 TDB 
   7.920098236122882E-03 -1.799806354441518E-04 -6.883631584413437E-04
  -2.595882771651477E-05  2.936448954336081E-03 -1.512135598201508E-03
2452819.500000000 = A.D. 2003-Jun-29 00:00:00.0000 TDB 
  -3.493660667547272E-03  6.863211504252715E-03 -3.195593336623053E-03
  -2.872455341994502E-03 -1.012703985190496E-03  8.057163107637787E-04
2452824.500000000 = A.D. 2003-Jul-04 00:00:00.0000 TDB 
  -6.061507820186710E-03 -4.714128989988003E-03  3.029601089021355E-03
   2.203762444611083E-03 -2.122089282950339E-03  8.772492797399061E-04
2452829.500000000 = A.D. 2003-Jul-09 00:00:00.0000 TDB 
   7.354075563671834E-03 -2.873559757779551E-03  7.568407125247724E-04
   1.209514032607442E-03  2.689162398588524E-03 -1.506452941521211E-03
2452834.500000000 = A.D. 2003-Jul-14 00:00:00.0000 TDB 
  -6.104339679540866E-04  7.353830596951634E-03 -3.733055034200571E-03
  -3.161130005524874E-03 -9.750479445317750E-06  3.168640022226201E-04
2452839.500000000 = A.D. 2003-Jul-19 00:00:00.0000 TDB 
  -7.700424333923202E-03 -2.441659783187898E-03  2.019129881834390E-03
   1.228877428063331E-03 -2.629945786281392E-03  1.235368855442881E-03
2452844.500000000 = A.D. 2003-Jul-24 00:00:00.0000 TDB 
   5.689505373960440E-03 -5.137891965598044E-03  2.088987794700900E-03
   2.266032768160186E-03  2.040468765652419E-03 -1.276079337823511E-03
2452849.500000000 = A.D. 2003-Jul-29 00:00:00.0000 TDB 
   2.351758702523221E-03  6.872131099102536E-03 -3.776835435810825E-03
  -3.033732625219862E-03  1.022099161414349E-03 -2.279380993955494E-04
2452854.500000000 = A.D. 2003-Aug-03 00:00:00.0000 TDB 
  -8.342156279577356E-03  1.482747476479907E-04  7.465196776960017E-04
   1.172476232709473E-04 -2.789398194581529E-03  1.427280773979882E-03
2452859.500000000 = A.D. 2003-Aug-08 00:00:00.0000 TDB 
   3.178830476510651E-03 -6.639117989632619E-03  3.110996664720354E-03
   2.976630687789754E-03  1.097914450096566E-03 -8.600090699829020E-04
2452864.500000000 = A.D. 2003-Aug-13 00:00:00.0000 TDB 
   4.991778493833184E-03  5.455261661214277E-03 -3.306489570014226E-03
  -2.482747913327057E-03  1.944756872530965E-03 -7.582083785661962E-04
2452869.500000000 = A.D. 2003-Aug-18 00:00:00.0000 TDB 
  -7.921970755771749E-03  2.720079069046041E-03 -6.214927269909001E-04
  -9.950729190204149E-04 -2.593441275133274E-03  1.435950246174951E-03
2452874.500000000 = A.D. 2003-Aug-23 00:00:00.0000 TDB 
   2.020592767298561E-04 -7.170411651628783E-03  3.678737260020806E-03
   3.242335371153863E-03  1.684767281942820E-05 -3.286028069733203E-04
2452879.500000000 = A.D. 2003-Aug-28 00:00:00.0000 TDB 
   6.928822022912564E-03  3.273337110800094E-03 -2.372161335963768E-03
  -1.560957745180953E-03  2.618427915811608E-03 -1.196640459946656E-03
2452884.500000000 = A.D. 2003-Sep-02 00:00:00.0000 TDB 
  -6.501237655363259E-03  4.948537222209191E-03 -1.911110554599531E-03
  -1.978873183245624E-03 -2.070264897111265E-03  1.263165796671834E-03
2452889.500000000 = A.D. 2003-Sep-07 00:00:00.0000 TDB 
  -2.805587800337774E-03 -6.680048827405689E-03  3.722599734301803E-03
   3.045539508941174E-03 -1.036329525358009E-03  2.340528379008934E-04
2452894.500000000 = A.D. 2003-Sep-12 00:00:00.0000 TDB 
   7.863403023881116E-03  6.197912004577507E-04 -1.095640067664911E-03
  -3.874098720108272E-04  2.926478720957363E-03 -1.471335334924044E-03
2452899.500000000 = A.D. 2003-Sep-17 00:00:00.0000 TDB 
  -4.257479006077651E-03  6.549886077484116E-03 -2.958478331511714E-03
  -2.718571572138832E-03 -1.279122610518302E-03  9.280804665772072E-04
2452904.500000000 = A.D. 2003-Sep-22 00:00:00.0000 TDB 
  -5.427629035224171E-03 -5.265811201502977E-03  3.251893012462366E-03
   2.440372325396632E-03 -1.916347362592496E-03  7.476895203254500E-04
2452909.500000000 = A.D. 2003-Sep-27 00:00:00.0000 TDB 
   7.636681894889625E-03 -2.124194578111005E-03  3.421157815125048E-04
   8.630191490920992E-04  2.804697375847564E-03 -1.531917026742620E-03
2452914.500000000 = A.D. 2003-Oct-02 00:00:00.0000 TDB 
  -1.468304915265657E-03  7.310071553867361E-03 -3.625829602262671E-03
  -3.119002941341857E-03 -3.079147349505994E-04  4.666391821877309E-04
2452919.500000000 = A.D. 2003-Oct-07 00:00:00.0000 TDB 
  -7.323873818542371E-03 -3.144859615407600E-03  2.345028385124096E-03
   1.530244110227462E-03 -2.517748479360384E-03  1.147713718420234E-03
2452924.500000000 = A.D. 2003-Oct-12 00:00:00.0000 TDB 
   6.270216913660580E-03 -4.550900366846724E-03  1.728677740758097E-03
   1.990498387896291E-03  2.263585332547139E-03 -1.364079960464815E-03
2452929.500000000 = A.D. 2003-Oct-17 00:00:00.0000 TDB 
   1.511927297732532E-03  7.110851994754835E-03 -3.817220689318086E-03
  -3.114838884029454E-03  7.293180235399786E-04 -6.878789513984902E-05
2452934.500000000 = A.D. 2003-Oct-22 00:00:00.0000 TDB 
  -8.265710420428628E-03 -6.126052100418928E-04  1.131801993145258E-03
   4.441343526707312E-04 -2.780161513548495E-03  1.390263235294425E-03
2452939.500000000 = A.D. 2003-Oct-27 00:00:00.0000 TDB 
   3.969012193300842E-03 -6.299783280576766E-03  2.857871588493001E-03
   2.814411617524835E-03  1.391266024851493E-03 -9.954464123120674E-04
2452944.500000000 = A.D. 2003-Nov-01 00:00:00.0000 TDB 
   4.286160811089243E-03  5.952176630352512E-03 -3.493404034732611E-03
  -2.683509002379902E-03  1.698252109317165E-03 -6.111467659555372E-04
2452949.500000000 = A.D. 2003-Nov-06 00:00:00.0000 TDB 
  -8.151199055040742E-03  1.998843823781321E-03 -2.265212013178428E-04
  -6.816422028825727E-04 -2.685397741303758E-03  1.452503382596535E-03
2452954.500000000 = A.D. 2003-Nov-11 00:00:00.0000 TDB 
   1.083101120949445E-03 -7.123032800212463E-03  3.567368627570351E-03
   3.213740282515035E-03  3.329229446937017E-04 -4.889551837097170E-04
2452959.500000000 = A.D. 2003-Nov-16 00:00:00.0000 TDB 
   6.461634401809770E-03  3.965764777186822E-03 -2.683525218172804E-03
  -1.859285911813940E-03  2.457352794071181E-03 -1.084057145445706E-03
2452964.500000000 = A.D. 2003-Nov-21 00:00:00.0000 TDB 
  -7.006001741514397E-03  4.357918166884505E-03 -1.556387941552222E-03
  -1.715136681059470E-03 -2.251960729781131E-03  1.330950958332428E-03
2452969.500000000 = A.D. 2003-Nov-26 00:00:00.0000 TDB 
  -1.960353717687440E-03 -6.923487081872738E-03  3.764897026109055E-03
   3.147581121071262E-03 -7.445101996123114E-04  7.333197685309324E-05
2452974.500000000 = A.D. 2003-Dec-01 00:00:00.0000 TDB 
   7.708913859837832E-03  1.411924741849284E-03 -1.489322159918590E-03
  -7.423455384884890E-04  2.880291190126660E-03 -1.412476236831331E-03
2452979.500000000 = A.D. 2003-Dec-06 00:00:00.0000 TDB 
  -4.975397569843083E-03  6.165841795129507E-03 -2.689374069283376E-03
  -2.536185674145115E-03 -1.530391414262121E-03  1.039808359187385E-03
2452984.500000000 = A.D. 2003-Dec-11 00:00:00.0000 TDB 
  -4.732656306812911E-03 -5.758099230254672E-03  3.437483382320963E-03
   2.651377427155321E-03 -1.687151359211259E-03  6.085457750036966E-04
2452989.500000000 = A.D. 2003-Dec-16 00:00:00.0000 TDB 
   7.823289653556375E-03 -1.348103566691764E-03 -7.693613016246267E-05
   5.061627776124979E-04  2.884887242902566E-03 -1.538107405593014E-03
2452994.500000000 = A.D. 2003-Dec-21 00:00:00.0000 TDB 
  -2.310069349391512E-03  7.185635081182207E-03 -3.478532218859090E-03
  -3.042863435595675E-03 -6.005003244748876E-04  6.101772752102938E-04
2452999.500000000 = A.D. 2003-Dec-26 00:00:00.0000 TDB 
  -6.867052770994167E-03 -3.813518730065045E-03  2.645166598914778E-03
   1.816839712451453E-03 -2.377054407134400E-03  1.046800674931191E-03
2453004.500000000 = A.D. 2003-Dec-31 00:00:00.0000 TDB 
   6.772201614896922E-03 -3.906817415251783E-03  1.346656394388191E-03
   1.689356743846998E-03  2.458811820175443E-03 -1.435151549725332E-03
2453009.500000000 = A.D. 2004-Jan-05 00:00:00.0000 TDB 
   6.548207548752686E-04  7.268846132808740E-03 -3.814214610713520E-03
  -3.160001926296279E-03  4.308352192437920E-04  8.975980841967780E-05
